[
    {"name":"Afghanistan","code":"AF","iso3":"AFG","phone_code":"+93","currency":"AFN"},
    {"name":"Albania","code":"AL","iso3":"ALB","phone_code":"+355","currency":"ALL"},
    {"name":"Algeria","code":"DZ","iso3":"DZA","phone_code":"+213","currency":"DZD"},
    {"name":"Andorra","code":"AD","iso3":"AND","phone_code":"+376","currency":"EUR"},
    {"name":"Angola","code":"AO","iso3":"AGO","phone_code":"+244","currency":"AOA"},
    {"name":"Antigua and Barbuda","code":"AG","iso3":"ATG","phone_code":"+1-268","currency":"XCD"},
    {"name":"Argentina","code":"AR","iso3":"ARG","phone_code":"+54","currency":"ARS"},
    {"name":"Armenia","code":"AM","iso3":"ARM","phone_code":"+374","currency":"AMD"},
    {"name":"Australia","code":"AU","iso3":"AUS","phone_code":"+61","currency":"AUD"},
    {"name":"Austria","code":"AT","iso3":"AUT","phone_code":"+43","currency":"EUR"},
    {"name":"Azerbaijan","code":"AZ","iso3":"AZE","phone_code":"+994","currency":"AZN"},

    {"name":"Bahamas","code":"BS","iso3":"BHS","phone_code":"+1-242","currency":"BSD"},
    {"name":"Bahrain","code":"BH","iso3":"BHR","phone_code":"+973","currency":"BHD"},
    {"name":"Bangladesh","code":"BD","iso3":"BGD","phone_code":"+880","currency":"BDT"},
    {"name":"Barbados","code":"BB","iso3":"BRB","phone_code":"+1-246","currency":"BBD"},
    {"name":"Belarus","code":"BY","iso3":"BLR","phone_code":"+375","currency":"BYN"},
    {"name":"Belgium","code":"BE","iso3":"BEL","phone_code":"+32","currency":"EUR"},
    {"name":"Belize","code":"BZ","iso3":"BLZ","phone_code":"+501","currency":"BZD"},
    {"name":"Benin","code":"BJ","iso3":"BEN","phone_code":"+229","currency":"XOF"},
    {"name":"Bhutan","code":"BT","iso3":"BTN","phone_code":"+975","currency":"BTN"},
    {"name":"Bolivia","code":"BO","iso3":"BOL","phone_code":"+591","currency":"BOB"},
    {"name":"Bosnia and Herzegovina","code":"BA","iso3":"BIH","phone_code":"+387","currency":"BAM"},
    {"name":"Botswana","code":"BW","iso3":"BWA","phone_code":"+267","currency":"BWP"},
    {"name":"Brazil","code":"BR","iso3":"BRA","phone_code":"+55","currency":"BRL"},
    {"name":"Brunei","code":"BN","iso3":"BRN","phone_code":"+673","currency":"BND"},
    {"name":"Bulgaria","code":"BG","iso3":"BGR","phone_code":"+359","currency":"BGN"},
    {"name":"Burkina Faso","code":"BF","iso3":"BFA","phone_code":"+226","currency":"XOF"},
    {"name":"Burundi","code":"BI","iso3":"BDI","phone_code":"+257","currency":"BIF"},

    {"name":"Cambodia","code":"KH","iso3":"KHM","phone_code":"+855","currency":"KHR"},
    {"name":"Cameroon","code":"CM","iso3":"CMR","phone_code":"+237","currency":"XAF"},
    {"name":"Canada","code":"CA","iso3":"CAN","phone_code":"+1","currency":"CAD"},
    {"name":"Cape Verde","code":"CV","iso3":"CPV","phone_code":"+238","currency":"CVE"},
    {"name":"Central African Republic","code":"CF","iso3":"CAF","phone_code":"+236","currency":"XAF"},
    {"name":"Chad","code":"TD","iso3":"TCD","phone_code":"+235","currency":"XAF"},
    {"name":"Chile","code":"CL","iso3":"CHL","phone_code":"+56","currency":"CLP"},
    {"name":"China","code":"CN","iso3":"CHN","phone_code":"+86","currency":"CNY"},
    {"name":"Colombia","code":"CO","iso3":"COL","phone_code":"+57","currency":"COP"},
    {"name":"Comoros","code":"KM","iso3":"COM","phone_code":"+269","currency":"KMF"},
    {"name":"Congo","code":"CG","iso3":"COG","phone_code":"+242","currency":"XAF"},
    {"name":"Costa Rica","code":"CR","iso3":"CRI","phone_code":"+506","currency":"CRC"},
    {"name":"Croatia","code":"HR","iso3":"HRV","phone_code":"+385","currency":"EUR"},
    {"name":"Cuba","code":"CU","iso3":"CUB","phone_code":"+53","currency":"CUP"},
    {"name":"Cyprus","code":"CY","iso3":"CYP","phone_code":"+357","currency":"EUR"},
    {"name":"Czech Republic","code":"CZ","iso3":"CZE","phone_code":"+420","currency":"CZK"},

    {"name":"Denmark","code":"DK","iso3":"DNK","phone_code":"+45","currency":"DKK"},
    {"name":"Djibouti","code":"DJ","iso3":"DJI","phone_code":"+253","currency":"DJF"},
    {"name":"Dominica","code":"DM","iso3":"DMA","phone_code":"+1-767","currency":"XCD"},
    {"name":"Dominican Republic","code":"DO","iso3":"DOM","phone_code":"+1-809","currency":"DOP"},

    {"name":"Ecuador","code":"EC","iso3":"ECU","phone_code":"+593","currency":"USD"},
    {"name":"Egypt","code":"EG","iso3":"EGY","phone_code":"+20","currency":"EGP"},
    {"name":"El Salvador","code":"SV","iso3":"SLV","phone_code":"+503","currency":"USD"},
    {"name":"Equatorial Guinea","code":"GQ","iso3":"GNQ","phone_code":"+240","currency":"XAF"},
    {"name":"Eritrea","code":"ER","iso3":"ERI","phone_code":"+291","currency":"ERN"},
    {"name":"Estonia","code":"EE","iso3":"EST","phone_code":"+372","currency":"EUR"},
    {"name":"Eswatini","code":"SZ","iso3":"SWZ","phone_code":"+268","currency":"SZL"},
    {"name":"Ethiopia","code":"ET","iso3":"ETH","phone_code":"+251","currency":"ETB"},

    {"name":"Fiji","code":"FJ","iso3":"FJI","phone_code":"+679","currency":"FJD"},
    {"name":"Finland","code":"FI","iso3":"FIN","phone_code":"+358","currency":"EUR"},
    {"name":"France","code":"FR","iso3":"FRA","phone_code":"+33","currency":"EUR"},

    {"name":"Gabon","code":"GA","iso3":"GAB","phone_code":"+241","currency":"XAF"},
    {"name":"Gambia","code":"GM","iso3":"GMB","phone_code":"+220","currency":"GMD"},
    {"name":"Georgia","code":"GE","iso3":"GEO","phone_code":"+995","currency":"GEL"},
    {"name":"Germany","code":"DE","iso3":"DEU","phone_code":"+49","currency":"EUR"},
    {"name":"Ghana","code":"GH","iso3":"GHA","phone_code":"+233","currency":"GHS"},
    {"name":"Greece","code":"GR","iso3":"GRC","phone_code":"+30","currency":"EUR"},
    {"name":"Guatemala","code":"GT","iso3":"GTM","phone_code":"+502","currency":"GTQ"},
    {"name":"Guinea","code":"GN","iso3":"GIN","phone_code":"+224","currency":"GNF"},
    {"name":"Guyana","code":"GY","iso3":"GUY","phone_code":"+592","currency":"GYD"},

    {"name":"Haiti","code":"HT","iso3":"HTI","phone_code":"+509","currency":"HTG"},
    {"name":"Honduras","code":"HN","iso3":"HND","phone_code":"+504","currency":"HNL"},
    {"name":"Hungary","code":"HU","iso3":"HUN","phone_code":"+36","currency":"HUF"},

    {"name":"Iceland","code":"IS","iso3":"ISL","phone_code":"+354","currency":"ISK"},
    {"name":"India","code":"IN","iso3":"IND","phone_code":"+91","currency":"INR"},
    {"name":"Indonesia","code":"ID","iso3":"IDN","phone_code":"+62","currency":"IDR"},
    {"name":"Iran","code":"IR","iso3":"IRN","phone_code":"+98","currency":"IRR"},
    {"name":"Iraq","code":"IQ","iso3":"IRQ","phone_code":"+964","currency":"IQD"},
    {"name":"Ireland","code":"IE","iso3":"IRL","phone_code":"+353","currency":"EUR"},
    {"name":"Israel","code":"IL","iso3":"ISR","phone_code":"+972","currency":"ILS"},
    {"name":"Italy","code":"IT","iso3":"ITA","phone_code":"+39","currency":"EUR"},

    {"name":"Japan","code":"JP","iso3":"JPN","phone_code":"+81","currency":"JPY"},
    {"name":"Jordan","code":"JO","iso3":"JOR","phone_code":"+962","currency":"JOD"},

    {"name":"Kazakhstan","code":"KZ","iso3":"KAZ","phone_code":"+7","currency":"KZT"},
    {"name":"Kenya","code":"KE","iso3":"KEN","phone_code":"+254","currency":"KES"},
    {"name":"Kuwait","code":"KW","iso3":"KWT","phone_code":"+965","currency":"KWD"},
    {"name":"Kyrgyzstan","code":"KG","iso3":"KGZ","phone_code":"+996","currency":"KGS"},

    {"name":"Laos","code":"LA","iso3":"LAO","phone_code":"+856","currency":"LAK"},
    {"name":"Latvia","code":"LV","iso3":"LVA","phone_code":"+371","currency":"EUR"},
    {"name":"Lebanon","code":"LB","iso3":"LBN","phone_code":"+961","currency":"LBP"},
    {"name":"Liberia","code":"LR","iso3":"LBR","phone_code":"+231","currency":"LRD"},
    {"name":"Libya","code":"LY","iso3":"LBY","phone_code":"+218","currency":"LYD"},
    {"name":"Lithuania","code":"LT","iso3":"LTU","phone_code":"+370","currency":"EUR"},
    {"name":"Luxembourg","code":"LU","iso3":"LUX","phone_code":"+352","currency":"EUR"},

    {"name":"Malaysia","code":"MY","iso3":"MYS","phone_code":"+60","currency":"MYR"},
    {"name":"Maldives","code":"MV","iso3":"MDV","phone_code":"+960","currency":"MVR"},
    {"name":"Mali","code":"ML","iso3":"MLI","phone_code":"+223","currency":"XOF"},
    {"name":"Malta","code":"MT","iso3":"MLT","phone_code":"+356","currency":"EUR"},
    {"name":"Mexico","code":"MX","iso3":"MEX","phone_code":"+52","currency":"MXN"},
    {"name":"Mongolia","code":"MN","iso3":"MNG","phone_code":"+976","currency":"MNT"},
    {"name":"Morocco","code":"MA","iso3":"MAR","phone_code":"+212","currency":"MAD"},
    {"name":"Myanmar","code":"MM","iso3":"MMR","phone_code":"+95","currency":"MMK"},

    {"name":"Nepal","code":"NP","iso3":"NPL","phone_code":"+977","currency":"NPR"},
    {"name":"Netherlands","code":"NL","iso3":"NLD","phone_code":"+31","currency":"EUR"},
    {"name":"New Zealand","code":"NZ","iso3":"NZL","phone_code":"+64","currency":"NZD"},
    {"name":"Nigeria","code":"NG","iso3":"NGA","phone_code":"+234","currency":"NGN"},
    {"name":"North Korea","code":"KP","iso3":"PRK","phone_code":"+850","currency":"KPW"},
    {"name":"Norway","code":"NO","iso3":"NOR","phone_code":"+47","currency":"NOK"},

    {"name":"Oman","code":"OM","iso3":"OMN","phone_code":"+968","currency":"OMR"},

    {"name":"Pakistan","code":"PK","iso3":"PAK","phone_code":"+92","currency":"PKR"},
    {"name":"Philippines","code":"PH","iso3":"PHL","phone_code":"+63","currency":"PHP"},
    {"name":"Poland","code":"PL","iso3":"POL","phone_code":"+48","currency":"PLN"},
    {"name":"Portugal","code":"PT","iso3":"PRT","phone_code":"+351","currency":"EUR"},

    {"name":"Qatar","code":"QA","iso3":"QAT","phone_code":"+974","currency":"QAR"},

    {"name":"Romania","code":"RO","iso3":"ROU","phone_code":"+40","currency":"RON"},
    {"name":"Russia","code":"RU","iso3":"RUS","phone_code":"+7","currency":"RUB"},

    {"name":"Saudi Arabia","code":"SA","iso3":"SAU","phone_code":"+966","currency":"SAR"},
    {"name":"Singapore","code":"SG","iso3":"SGP","phone_code":"+65","currency":"SGD"},
    {"name":"South Africa","code":"ZA","iso3":"ZAF","phone_code":"+27","currency":"ZAR"},
    {"name":"South Korea","code":"KR","iso3":"KOR","phone_code":"+82","currency":"KRW"},
    {"name":"Spain","code":"ES","iso3":"ESP","phone_code":"+34","currency":"EUR"},
    {"name":"Sri Lanka","code":"LK","iso3":"LKA","phone_code":"+94","currency":"LKR"},
    {"name":"Sweden","code":"SE","iso3":"SWE","phone_code":"+46","currency":"SEK"},
    {"name":"Switzerland","code":"CH","iso3":"CHE","phone_code":"+41","currency":"CHF"},

    {"name":"Thailand","code":"TH","iso3":"THA","phone_code":"+66","currency":"THB"},
    {"name":"Turkey","code":"TR","iso3":"TUR","phone_code":"+90","currency":"TRY"},

    {"name":"Ukraine","code":"UA","iso3":"UKR","phone_code":"+380","currency":"UAH"},
    {"name":"United Arab Emirates","code":"AE","iso3":"ARE","phone_code":"+971","currency":"AED"},
    {"name":"United Kingdom","code":"GB","iso3":"GBR","phone_code":"+44","currency":"GBP"},
    {"name":"United States","code":"US","iso3":"USA","phone_code":"+1","currency":"USD"},

    {"name":"Vietnam","code":"VN","iso3":"VNM","phone_code":"+84","currency":"VND"},

    {"name":"Yemen","code":"YE","iso3":"YEM","phone_code":"+967","currency":"YER"},
    {"name":"Zambia","code":"ZM","iso3":"ZMB","phone_code":"+260","currency":"ZMW"},
    {"name":"Zimbabwe","code":"ZW","iso3":"ZWE","phone_code":"+263","currency":"ZWL"}
]